TDRS 3                  
1 19548U 88091B   26196.76120102 -.00000310  00000+0  00000+0 0  9999
2 19548  12.5801 340.8118 0037039 355.5698 182.0141  1.00262408125675
FLTSATCOM 8 (USA 46)    
1 20253U 89077A   26197.29478979 -.00000380  00000+0  00000+0 0  9993
2 20253  12.4133 350.9841 0003279  72.2869 102.4119  1.00262429260858
SKYNET 4C               
1 20776U 90079A   26198.16074994 -.00000215  00000+0  00000+0 0  9990
2 20776  13.3285 349.6256 0002817 132.9021  49.3902  0.98579636   333
TDRS 5                  
1 21639U 91054B   26198.12614279  .00000072  00000+0  00000+0 0  9995
2 21639  14.0673 353.5560 0007363 258.0481 281.0681  1.00274572128014
TDRS 6                  
1 22314U 93003B   26197.90209353 -.00000308  00000+0  00000+0 0  9993
2 22314  14.1833 356.8338 0008492 184.6893  31.9845  1.00279128122704
UFO 2 (USA 95)          
1 22787U 93056A   26198.09280904  .00000112  00000+0  00000+0 0  9999
2 22787  11.9052   3.3848 0002352   6.9141 346.6366  1.00271344118843
UFO 4 (USA 108)         
1 23467U 95003A   26197.73174507 -.00000033  00000+0  00000+0 0  9993
2 23467   9.6773  13.0039 0003114 102.5913 254.7918  1.00276602115245
TDRS 7                  
1 23613U 95035B   26197.97155669 -.00000253  00000+0  00000+0 0  9999
2 23613  13.3648 347.9808 0011386  86.9727 298.8711  1.00273399113554
USA 115 (MILSTAR-1 2)   
1 23712U 95060A   26197.96492514 -.00000215  00000+0  00000+0 0  9997
2 23712  14.0834   3.5230 0006094 122.8859  65.7366  1.00272444 33186
INMARSAT 3-F1           
1 23839U 96020A   26197.59385365  .00000048  00000+0  00000+0 0  9991
2 23839  10.6601  46.3582 0004537  91.7170 243.9056  0.99980683110545
INMARSAT 3-F2           
1 24307U 96053A   26198.00647788 -.00000369  00000+0  00000+0 0  9992
2 24307   9.9218  53.6273 0006315  57.0968 306.3587  0.99990575109222
INMARSAT 3-F3           
1 24674U 96070A   26197.86641823  .00000012  00000+0  00000+0 0  9999
2 24674  10.3802  49.3628 0003602  80.6025 128.9503  0.99995867108204
USA 134                 
1 25019U 97065A   26197.59915618 -.00000077  00000+0  00000+0 0  9996
2 25019  12.8186  21.4990 0002603 336.2102  40.0109  1.00274442 33259
INMARSAT 3-F5           
1 25153U 98006B   26198.04329521 -.00000305  00000+0  00000+0 0  9998
2 25153   9.7583  52.9582 0004410  63.6639 139.8706  1.00272500104199
ABS-6                   
1 25924U 99053A   26198.14280781 -.00000130  00000+0  00000+0 0  9998
2 25924   0.0482 261.8186 0003138 197.5346  46.0140  1.00272144 98148
UFO 10 (USA 146)        
1 25967U 99063A   26197.84559152 -.00000201  00000+0  00000+0 0  9992
2 25967   9.8571  27.0495 0001675 123.7182  65.3754  1.00272333 97648
ASIASTAR                
1 26107U 00016A   26198.07480858 -.00000347  00000+0  00000+0 0  9992
2 26107   9.1975  57.8308 0003839  68.7552 300.2482  1.00270410 96229
USA 149 (DSP 20)        
1 26356U 00024A   26197.58208208  .00000082  00000+0  00000+0 0  9994
2 26356  13.1927  11.6393 0000557 261.5978  66.0321  1.00259469 33207
TDRS 8                  
1 26388U 00034A   26198.07082190 -.00000210  00000+0  00000+0 0  9999
2 26388  12.7292  31.0630 0003850  38.6419 335.5363  1.00271999 95484
NSS-11                  
1 26554U 00059A   26198.16022994  .00000013  00000+0  00000+0 0  9997
2 26554   2.2022  81.0332 0002942  43.0522  44.5683  1.00271606 41594
USA 153                 
1 26575U 00065A   26197.86686507 -.00000339  00000+0  00000+0 0  9991
2 26575  11.6743  35.1692 0002078  58.0091 288.0611  1.00272446 33227
AMC-6                   
1 26580U 00067A   26197.95599845  .00000078  00000+0  00000+0 0  9996
2 26580   0.2263  83.7397 0003914  44.2777  15.8650  1.00271706 94193
USA 157 (MILSTAR-2 2)   
1 26715U 01009A   26197.63794970  .00000096  00000+0  00000+0 0  9994
2 26715  11.5748  19.5778 0040463 179.2967 175.1833  1.00275123 33234
INTELSAT 902 (IS-902)   
1 26900U 01039A   26198.18794513 -.00000296  00000+0  00000+0 0  9990
2 26900   6.1897  71.4135 0004198  43.9774 197.1804  1.00271924 90990
USA 164 (MILSTAR-2 3)   
1 27168U 02001A   26197.73936396  .00000084  00000+0  00000+0 0  9998
2 27168  11.2142  21.7231 0099289   8.9863 189.0440  1.00266982 33257
INTELSAT 904 (IS-904)   
1 27380U 02007A   26198.04766970 -.00000239  00000+0  00000+0 0  9997
2 27380   6.9927  68.8224 0005394  26.5589 185.1713  1.00270506 52061
DIRECTV 5 (TEMPO 1)     
1 27426U 02023A   26198.10358617 -.00000069  00000+0  00000+0 0  9999
2 27426   4.9524  74.9359 0003169  48.2394  98.9249  1.00271632 88428
INTELSAT 905 (IS-905)   
1 27438U 02027A   26197.74171178  .00000080  00000+0  00000+0 0  9992
2 27438   6.8257  69.4400 0003478  48.1392 306.7924  1.00271751 51658
GALAXY 3C (G-3C)        
1 27445U 02030A   26198.10653285 -.00000164  00000+0  00000+0 0  9993
2 27445   3.8094  77.5881 0001638  31.9289 128.9243  1.00270810 46798
INTELSAT 906 (IS-906)   
1 27513U 02041A   26198.19419796  .00000000  00000+0  00000+0 0  9995
2 27513   5.8757  72.5489 0003738  27.5280 329.0130  1.00273554 87327
NIMIQ 2                 
1 27632U 02062A   26198.10375949 -.00000083  00000+0  00000+0 0  9994
2 27632   9.5132  56.5796 0005351  55.5598 110.9240  1.00271574 44485
